NORAD_CAT_ID,OBJECT_NAME,OBJECT_TYPE,EPOCH,MEAN_MOTION,ECCENTRICITY,INCLINATION,RA_OF_ASC_NODE,ARG_OF_PERICENTER,MEAN_ANOMALY,BSTAR,MEAN_MOTION_DOT,MEAN_MOTION_DDOT,TLE_LINE0,TLE_LINE1,TLE_LINE2,SEMIMAJOR_AXIS,PERIOD,APOGEE,PERIGEE,DECAYED
52831.0,STARLINK-4089,PAYLOAD,2022-07-26 06:00:00,15.49695076,0.0001349,53.2146,214.0119,57.9615,320.2343,0.010581,0.00648245,0.0,0 STARLINK-4089,1 52831U 22062B   22207.25001157  .00648245  00000-0  10581-1 0  9990,2 52831  53.2146 214.0119 0001349  57.9615 320.2343 15.49695076  6599,6795.754,92.922,418.536,416.703,0.0
52831.0,STARLINK-4089,PAYLOAD,2022-07-26 14:00:01,15.49778031,0.0001230999999999,53.2132,212.4227,60.9294,18.1628,0.0044848,0.00261796,0.0,0 STARLINK-4089,1 52831U 22062B   22207.58334491  .00261796  00000-0  44848-2 0  9992,2 52831  53.2132 212.4227 0001231  60.9294  18.1628 15.49778031  1309,6795.512,92.917,418.213,416.54,0.0
52831.0,STARLINK-4089,PAYLOAD,2022-07-26 20:00:01,15.49849889,0.0001225,53.2122,211.2333,66.8526,327.8966,0.00074953,0.00042265,0.0,0 STARLINK-4089,1 52831U 22062B   22207.83334491  .00042265  00000-0  74953-3 0  9999,2 52831  53.2122 211.2333 0001225  66.8526 327.8966 15.49849889  6680,6795.302,92.912,417.999,416.334,0.0
52831.0,STARLINK-4089,PAYLOAD,2022-07-26 22:00:00,15.49853135,0.0001242,53.2121,210.8348,68.2259,71.7447,0.00081345,0.00045935,0.0,0 STARLINK-4089,1 52831U 22062B   22207.91667824  .00045935  00000-0  81345-3 0  9997,2 52831  53.2121 210.8348 0001242  68.2259  71.7447 15.49853135  1300,6795.292,92.912,418.001,416.31300000000016,0.0
52831.0,STARLINK-4089,PAYLOAD,2022-07-27 14:00:01,15.49901132,0.0001375,53.2132,207.6452,59.1607,202.6103,-0.00045367,-0.00026129,0.0,0 STARLINK-4089,1 52831U 22062B   22208.58334491 -.00026129  00000-0 -45367-3 0  9992,2 52831  53.2132 207.6452 0001375  59.1607 202.6103 15.49901132  1300,6795.151999999999,92.909,417.951,416.083,0.0
52831.0,STARLINK-4089,PAYLOAD,2022-07-27 16:00:00,15.49886395,0.0001345,53.2137,207.2439,63.6286,303.3772,0.00019785,0.00010794,0.0,0 STARLINK-4089,1 52831U 22062B   22208.66667824  .00010794  00000-0  19785-3 0  9994,2 52831  53.2137 207.2439 0001345  63.6286 303.3772 15.49886395  6811,6795.195,92.91,417.974,416.146,0.0
52831.0,STARLINK-4089,PAYLOAD,2022-07-27 22:00:00,15.50054869,0.0001029,53.2148,206.0413,61.6719,260.9879,-0.0044537,-0.00246895,0.0,0 STARLINK-4089,1 52831U 22062B   22208.91667824 -.00246895  00000-0 -44537-2 0  9999,2 52831  53.2148 206.0413 0001029  61.6719 260.9879 15.50054869  1300,6794.703,92.9,417.267,415.869,0.0
52831.0,STARLINK-4089,PAYLOAD,2022-07-28 00:00:00,15.50335553,0.0001464,53.2156,205.6406,57.0205,10.8239,-0.01795,-0.00949748,0.0,0 STARLINK-4089,1 52831U 22062B   22209.00001157 -.00949748  00000-0 -17950-1 0  9996,2 52831  53.2156 205.6406 0001464  57.0205  10.8239 15.50335553  6868,6793.8830000000025,92.883,416.742,414.753,0.0
52831.0,STARLINK-4089,PAYLOAD,2022-07-28 08:00:01,15.49565241,0.0001553,53.2174,204.04,46.3443,82.5799,-0.021933,-0.01112019,0.0,0 STARLINK-4089,1 52831U 22062B   22209.33334491 -.01112019  00000-0 -21933-1 0  9992,2 52831  53.2174 204.0400 0001553  46.3443  82.5799 15.49565241  6920,6796.134,92.929,419.054,416.944,0.0
52831.0,STARLINK-4089,PAYLOAD,2022-07-28 14:00:01,15.48965229,0.0001225,53.2172,202.8423,61.5219,22.5244,-0.02246,-0.01114392,0.0,0 STARLINK-4089,1 52831U 22062B   22209.58334491 -.01114392  00000-0 -22460-1 0  9991,2 52831  53.2172 202.8423 0001225  61.5219  22.5244 15.48965229  1300,6797.889,92.965,420.587,418.921,0.0
52831.0,STARLINK-4089,PAYLOAD,2022-07-28 22:00:00,15.48162373,0.0001296999999999,53.2173,201.247,70.5939,72.7723,-0.023125,-0.01115254,0.0,0 STARLINK-4089,1 52831U 22062B   22209.91667824 -.01115254  00000-0 -23125-1 0  9994,2 52831  53.2173 201.2470 0001297  70.5939  72.7723 15.48162373  1302,6800.239000000001,93.013,422.986,421.222,0.0
52831.0,STARLINK-4089,PAYLOAD,2022-07-29 06:00:00,15.47357853,0.0001563,53.2174,199.6568,53.0771,148.6428,-0.023707,-0.01128145,0.0,0 STARLINK-4089,1 52831U 22062B   22210.25001157 -.01128145  00000-0 -23707-1 0  9993,2 52831  53.2174 199.6568 0001563  53.0771 148.6428 15.47357853  7069,6802.596,93.062,425.524,423.398,0.0
52831.0,STARLINK-4089,PAYLOAD,2022-07-29 14:00:01,15.46557687,0.0001341999999999,53.2171,198.0663,59.9975,199.1113,-0.024489,-0.01132818,0.0,0 STARLINK-4089,1 52831U 22062B   22210.58334491 -.01132818  00000-0 -24489-1 0  9999,2 52831  53.2171 198.0663 0001342  59.9975 199.1113 15.46557687  1300,6804.941999999999,93.11,427.72,425.894,0.0
52831.0,STARLINK-4089,PAYLOAD,2022-07-29 22:00:00,15.45751307,0.0001281999999999,53.2172,196.4769,56.13,259.4052,-0.025037,-0.01126778,0.0,0 STARLINK-4089,1 52831U 22062B   22210.91667824 -.01126778  00000-0 -25037-1 0  9993,2 52831  53.2172 196.4769 0001282  56.1300 259.4052 15.45751307  7160,6807.308000000001,93.159,430.046,428.301,0.0
52831.0,STARLINK-4089,PAYLOAD,2022-07-30 14:00:01,15.44147159,0.0001188,53.2172,193.3077,64.1167,1.3721,-0.0265079999999999,-0.01128792,0.0,0 STARLINK-4089,1 52831U 22062B   22211.58334491 -.01128792  00000-0 -26508-1 0  9990,2 52831  53.2172 193.3077 0001188  64.1167   1.3721 15.44147159  7275,6812.022,93.255,434.696,433.078,0.0
52831.0,STARLINK-4089,PAYLOAD,2022-07-30 22:00:00,15.43343798,0.0001358,53.2173,191.7241,61.7229,57.2967,-0.027217,-0.01127822,0.0,0 STARLINK-4089,1 52831U 22062B   22211.91667824 -.01127822  00000-0 -27217-1 0  9997,2 52831  53.2173 191.7241 0001358  61.7229  57.2967 15.43343798  1308,6814.386,93.304,437.176,435.325,0.0
52831.0,STARLINK-4089,PAYLOAD,2022-07-31 06:00:02,15.42540731,0.0001557,53.2171,190.1455,55.0024,116.6459,-0.027955,-0.01127399,0.0,0 STARLINK-4089,1 52831U 22062B   22212.25002315 -.01127399  00000-0 -27955-1 0  9991,2 52831  53.2171 190.1455 0001557  55.0024 116.6459 15.42540731  7370,6816.751,93.352,439.677,437.554,0.0
52831.0,STARLINK-4089,PAYLOAD,2022-07-31 14:00:01,15.41739303,0.0001336,53.2172,188.5662,69.6601,153.5246,-0.0287949999999999,-0.01130031,0.0,0 STARLINK-4089,1 52831U 22062B   22212.58334491 -.01130031  00000-0 -28795-1 0  9990,2 52831  53.2172 188.5662 0001336  69.6601 153.5246 15.41739303  1304,6819.113,93.401,441.889,440.067,0.0
52831.0,STARLINK-4089,PAYLOAD,2022-07-31 22:00:00,15.40933928,0.000129,53.2174,186.9884,70.2775,203.5439,-0.029435,-0.01124846,0.0,0 STARLINK-4089,1 52831U 22062B   22212.91667824 -.01124846  00000-0 -29435-1 0  9995,2 52831  53.2174 186.9884 0001290  70.2775 203.5439 15.40933928  1301,6821.489000000001,93.45,444.234,442.474,0.0
52831.0,STARLINK-4089,PAYLOAD,2022-08-01 04:00:00,15.40329833,0.0001445,53.2172,185.80900000000003,62.1016,159.0636,-0.029969,-0.01122651,0.0,0 STARLINK-4089,1 52831U 22062B   22213.16667824 -.01122651  00000-0 -29969-1 0  9997,2 52831  53.2172 185.8090 0001445  62.1016 159.0636 15.40329833  7513,6823.272,93.486,446.12300000000016,444.151,0.0
52831.0,STARLINK-4089,PAYLOAD,2022-08-01 14:00:01,15.39330126,0.000118,53.2173,183.8419,60.3088,311.8888,-0.0311649999999999,-0.01128741,0.0,0 STARLINK-4089,1 52831U 22062B   22213.58334491 -.01128741  00000-0 -31165-1 0  9991,2 52831  53.2173 183.8419 0001180  60.3088 311.8888 15.39330126  1305,6826.226,93.547,448.896,447.285,0.0
52831.0,STARLINK-4089,PAYLOAD,2022-08-01 22:00:00,15.38524702,0.0001325,53.2175,182.27,56.2337,3.7063,-0.03185,-0.01123809,0.0,0 STARLINK-4089,1 52831U 22062B   22213.91667824 -.01123809  00000-0 -31850-1 0  9998,2 52831  53.2175 182.2700 0001325  56.2337   3.7063 15.38524702  1301,6828.608,93.596,451.378,449.568,0.0
52831.0,STARLINK-4089,PAYLOAD,2022-08-02 14:00:01,15.36920752,0.0001437,53.2173,179.1349,59.7886,92.7386,-0.033667,-0.01126941,0.0,0 STARLINK-4089,1 52831U 22062B   22214.58334491 -.01126941  00000-0 -33667-1 0  9991,2 52831  53.2173 179.1349 0001437  59.7886  92.7386 15.36920752  1303,6833.358,93.694,456.205,454.241,0.0
52831.0,STARLINK-4089,PAYLOAD,2022-08-03 14:00:01,15.34513147,0.0001308,53.2174,174.445,63.6358,220.5371,-0.03645,-0.0112866,0.0,0 STARLINK-4089,1 52831U 22062B   22215.58334491 -.01128660  00000-0 -36450-1 0  9995,2 52831  53.2174 174.4450 0001308  63.6358 220.5371 15.34513147  7888,6840.504,93.841,463.264,461.474,0.0
52831.0,STARLINK-4089,PAYLOAD,2022-08-03 22:00:01,15.33707703,0.0001220999999999,53.2177,172.885,69.0405,257.1493,-0.0372,-0.01123113,0.0,0 STARLINK-4089,1 52831U 22062B   22215.91668981 -.01123113  00000-0 -37200-1 0  9998,2 52831  53.2177 172.8850 0001221  69.0405 257.1493 15.33707703  1308,6842.899,93.89,465.599,463.92800000000005,0.0
52831.0,STARLINK-4089,PAYLOAD,2022-08-04 14:00:01,15.32102667,0.0001294,53.2174,169.7721,55.6524,351.4838,-0.039228,-0.01125385,0.0,0 STARLINK-4089,1 52831U 22062B   22216.58334491 -.01125385  00000-0 -39228-1 0  9993,2 52831  53.2174 169.7721 0001294  55.6524 351.4838 15.32102667  1308,6847.677,93.988,470.42800000000005,468.656,0.0
52831.0,STARLINK-4089,PAYLOAD,2022-08-04 22:00:00,15.31298234,0.0001411,53.2176,168.218,55.2226,30.9721,-0.040107,-0.01122174,0.0,0 STARLINK-4089,1 52831U 22062B   22216.91667824 -.01122174  00000-0 -40107-1 0  9990,2 52831  53.2176 168.2180 0001411  55.2226  30.9721 15.31298234  1304,6850.075,94.038,472.906,470.973,0.0
52831.0,STARLINK-4089,PAYLOAD,2022-08-05 14:00:01,15.29693351,0.0001415,53.2174,165.1164,65.8986,95.5808,-0.042223,-0.01123506,0.0,0 STARLINK-4089,1 52831U 22062B   22217.58335648 -.01123506  00000-0 -42223-1 0  9991,2 52831  53.2174 165.1164 0001415  65.8986  95.5808 15.29693351  1303,6854.865,94.137,477.7,475.76,0.0
52831.0,STARLINK-4089,PAYLOAD,2022-08-05 22:00:00,15.28889095,0.0001495,53.2176,163.5683,62.9413,134.6381,-0.043177,-0.01120871,0.0,0 STARLINK-4089,1 52831U 22062B   22217.91667824 -.01120871  00000-0 -43177-1 0  9993,2 52831  53.2176 163.5683 0001495  62.9413 134.6381 15.28889095  1306,6857.269,94.186,480.159,478.109,0.0
